[{"OBJECT_NAME":"STARLINK-3548","OBJECT_ID":"2022-022N","EPOCH":"2026-03-09T23:24:03.438720","MEAN_MOTION":15.08838389,"ECCENTRICITY":0.00014593,"INCLINATION":53.2191,"RA_OF_ASC_NODE":7.7626,"ARG_OF_PERICENTER":118.0377,"MEAN_ANOMALY":242.0763,"EPHEMERIS_TYPE":0,"CLASSIFICATION_TYPE":"U","NORAD_CAT_ID":51864,"ELEMENT_SET_NO":999,"REV_AT_EPOCH":22320,"BSTAR":3.347674e-6,"MEAN_MOTION_DOT":-2.35e-6,"MEAN_MOTION_DDOT":0},{"OBJECT_NAME":"ONEWEB-0618","OBJECT_ID":"2023-004V","EPOCH":"2026-03-09T21:27:12.326688","MEAN_MOTION":15.11974897,"ECCENTRICITY":0.00107842,"INCLINATION":86.9069,"RA_OF_ASC_NODE":217.8931,"ARG_OF_PERICENTER":307.7231,"MEAN_ANOMALY":52.303,"EPHEMERIS_TYPE":0,"CLASSIFICATION_TYPE":"U","NORAD_CAT_ID":55159,"ELEMENT_SET_NO":999,"REV_AT_EPOCH":16725,"BSTAR":0.00049587895,"MEAN_MOTION_DOT":8.547e-5,"MEAN_MOTION_DDOT":0}]
